start=new Date('2022-05-30T00:00:00.000Z').valueOf();
sats=[{"FILE":"3471140","GP_ID":"204862805","SITE":"AFETR","TLE_LINE2":"2 47579  53.0567  87.3082 0002460  49.4219 310.6984 15.06389585 73516","EPOCH":"2022-05-29T13:15:30.545568","BSTAR":"0.00004891100000","ELEMENT_SET_NO":"999","REF_FRAME":"TEME","NORAD_CAT_ID":"47579","COUNTRY_CODE":"US","OBJECT_TYPE":"PAYLOAD","MEAN_MOTION_DDOT":"0.0000000000000","PERIOD":"95.593","RA_OF_ASC_NODE":"87.3082","APOAPSIS":"548.949","OBJECT_NAME":"STARLINK-1981","MEAN_ANOMALY":"310.6984","INCLINATION":"53.0567","SEMIMAJOR_AXIS":"6925.380","CENTER_NAME":"EARTH","ECCENTRICITY":"0.00024600","RCS_SIZE":"LARGE","MEAN_ELEMENT_THEORY":"SGP4","OBJECT_ID":"2021-009AH","DECAY_DATE":null,"MEAN_MOTION_DOT":"0.00000447","LAUNCH_DATE":"2021-02-04","PERIAPSIS":"545.542","TIME_SYSTEM":"UTC","REV_AT_EPOCH":"7351","TLE_LINE1":"1 47579U 21009AH  22149.55243687  .00000447  00000-0  48911-4 0  9994","ARG_OF_PERICENTER":"49.4219","EPHEMERIS_TYPE":"0","MEAN_MOTION":"15.06389585","CLASSIFICATION_TYPE":"U"},{"BSTAR":"0.00015291000000","EPOCH":"2022-05-29T13:46:01.263936","TLE_LINE2":"2 47580  53.0561  97.2133 0001997  49.2470 310.8692 15.06400318 72773","SITE":"AFETR","FILE":"3470904","GP_ID":"204854869","COUNTRY_CODE":"US","PERIOD":"95.592","OBJECT_TYPE":"PAYLOAD","MEAN_MOTION_DDOT":"0.0000000000000","REF_FRAME":"TEME","NORAD_CAT_ID":"47580","ELEMENT_SET_NO":"999","MEAN_ANOMALY":"310.8692","OBJECT_NAME":"STARLINK-1982","APOAPSIS":"548.596","RA_OF_ASC_NODE":"97.2133","CENTER_NAME":"EARTH","SEMIMAJOR_AXIS":"6925.348","INCLINATION":"53.0561","MEAN_MOTION_DOT":"0.00001997","DECAY_DATE":null,"OBJECT_ID":"2021-009AJ","MEAN_ELEMENT_THEORY":"SGP4","ECCENTRICITY":"0.00019970","RCS_SIZE":"LARGE","TIME_SYSTEM":"UTC","PERIAPSIS":"545.830","LAUNCH_DATE":"2021-02-04","ARG_OF_PERICENTER":"49.2470","EPHEMERIS_TYPE":"0","REV_AT_EPOCH":"7277","TLE_LINE1":"1 47580U 21009AJ  22149.57362574  .00001997  00000-0  15291-3 0  9990","CLASSIFICATION_TYPE":"U","MEAN_MOTION":"15.06400318"},{"SITE":"AFETR","GP_ID":"204853623","FILE":"3470904","TLE_LINE2":"2 47581  53.0551  78.7874 0001741  53.6335 306.4814 15.06403082 73000","EPOCH":"2022-05-29T05:19:07.098816","BSTAR":"0.00017760000000","ELEMENT_SET_NO":"999","COUNTRY_CODE":"US","MEAN_MOTION_DDOT":"0.0000000000000","OBJECT_TYPE":"PAYLOAD","PERIOD":"95.592","REF_FRAME":"TEME","NORAD_CAT_ID":"47581","RA_OF_ASC_NODE":"78.7874","MEAN_ANOMALY":"306.4814","OBJECT_NAME":"STARLINK-1984","APOAPSIS":"548.410","INCLINATION":"53.0551","CENTER_NAME":"EARTH","SEMIMAJOR_AXIS":"6925.339","MEAN_ELEMENT_THEORY":"SGP4","RCS_SIZE":"LARGE","ECCENTRICITY":"0.00017410","OBJECT_ID":"2021-009AK","DECAY_DATE":null,"MEAN_MOTION_DOT":"0.00002365","LAUNCH_DATE":"2021-02-04","TIME_SYSTEM":"UTC","PERIAPSIS":"545.998","REV_AT_EPOCH":"7300","TLE_LINE1":"1 47581U 21009AK  22149.22160994  .00002365  00000-0  17760-3 0  9998","EPHEMERIS_TYPE":"0","ARG_OF_PERICENTER":"53.6335","MEAN_MOTION":"15.06403082","CLASSIFICATION_TYPE":"U"},{"APOAPSIS":"549.198","OBJECT_NAME":"STARLINK-1986","MEAN_ANOMALY":"315.1172","RA_OF_ASC_NODE":"95.8701","CENTER_NAME":"EARTH","SEMIMAJOR_AXIS":"6925.363","INCLINATION":"53.0565","BSTAR":"-0.00011599000000","EPOCH":"2022-05-29T20:55:57.556416","TLE_LINE2":"2 47582  53.0565  95.8701 0002845  45.0047 315.1172 15.06395328 72822","FILE":"3471362","GP_ID":"204890732","SITE":"AFETR","REF_FRAME":"TEME","NORAD_CAT_ID":"47582","MEAN_MOTION_DDOT":"0.0000000000000","COUNTRY_CODE":"US","OBJECT_TYPE":"PAYLOAD","PERIOD":"95.592","ELEMENT_SET_NO":"999","ARG_OF_PERICENTER":"45.0047","EPHEMERIS_TYPE":"0","TLE_LINE1":"1 47582U 21009AL  22149.87219394 -.00002009  00000-0 -11599-3 0  9990","REV_AT_EPOCH":"7282","CLASSIFICATION_TYPE":"U","MEAN_MOTION":"15.06395328","MEAN_MOTION_DOT":"-0.00002009","DECAY_DATE":null,"OBJECT_ID":"2021-009AL","RCS_SIZE":"LARGE","ECCENTRICITY":"0.00028450","MEAN_ELEMENT_THEORY":"SGP4","PERIAPSIS":"545.258","TIME_SYSTEM":"UTC","LAUNCH_DATE":"2021-02-04"},{"TIME_SYSTEM":"UTC","PERIAPSIS":"546.012","LAUNCH_DATE":"2021-02-04","MEAN_MOTION_DOT":"0.00001030","DECAY_DATE":null,"OBJECT_ID":"2021-009AM","MEAN_ELEMENT_THEORY":"SGP4","RCS_SIZE":"LARGE","ECCENTRICITY":"0.00017630","CLASSIFICATION_TYPE":"U","MEAN_MOTION":"15.06393759","ARG_OF_PERICENTER":"61.6333","EPHEMERIS_TYPE":"0","REV_AT_EPOCH":"7278","TLE_LINE1":"1 47583U 21009AM  22149.58468329  .00001030  00000-0  88032-4 0  9991","OBJECT_TYPE":"PAYLOAD","COUNTRY_CODE":"US","PERIOD":"95.593","MEAN_MOTION_DDOT":"0.0000000000000","REF_FRAME":"TEME","NORAD_CAT_ID":"47583","ELEMENT_SET_NO":"999","EPOCH":"2022-05-29T14:01:56.636256","BSTAR":"0.00008803200000","TLE_LINE2":"2 47583  53.0553  97.1474 0001763  61.6333 298.4833 15.06393759 72780","SITE":"AFETR","FILE":"3471362","GP_ID":"204889485","CENTER_NAME":"EARTH","SEMIMAJOR_AXIS":"6925.368","INCLINATION":"53.0553","MEAN_ANOMALY":"298.4833","OBJECT_NAME":"STARLINK-1987","APOAPSIS":"548.454","RA_OF_ASC_NODE":"97.1474"},{"EPOCH":"2022-05-29T13:03:33.708960","BSTAR":"-0.00003414700000","TLE_LINE2":"2 47585  53.0574  97.3414 0002511  39.1216 320.9954 15.06393546 73378","SITE":"AFETR","FILE":"3470714","GP_ID":"204827530","COUNTRY_CODE":"US","OBJECT_TYPE":"PAYLOAD","MEAN_MOTION_DDOT":"0.0000000000000","PERIOD":"95.593","REF_FRAME":"TEME","NORAD_CAT_ID":"47585","ELEMENT_SET_NO":"999","MEAN_ANOMALY":"320.9954","OBJECT_NAME":"STARLINK-1989","APOAPSIS":"548.972","RA_OF_ASC_NODE":"97.3414","CENTER_NAME":"EARTH","SEMIMAJOR_AXIS":"6925.368","INCLINATION":"53.0574","MEAN_MOTION_DOT":"-0.00000790","DECAY_DATE":null,"OBJECT_ID":"2021-009AP","MEAN_ELEMENT_THEORY":"SGP4","RCS_SIZE":"LARGE","ECCENTRICITY":"0.00025110","TIME_SYSTEM":"UTC","PERIAPSIS":"545.494","LAUNCH_DATE":"2021-02-04","ARG_OF_PERICENTER":"39.1216","EPHEMERIS_TYPE":"0","TLE_LINE1":"1 47585U 21009AP  22149.54414015 -.00000790  00000-0 -34147-4 0  9994","REV_AT_EPOCH":"7337","CLASSIFICATION_TYPE":"U","MEAN_MOTION":"15.06393546"},{"ELEMENT_SET_NO":"999","REF_FRAME":"TEME","NORAD_CAT_ID":"47586","MEAN_MOTION_DDOT":"0.0000000000000","COUNTRY_CODE":"US","OBJECT_TYPE":"PAYLOAD","PERIOD":"95.593","GP_ID":"204889985","FILE":"3471362","SITE":"AFETR","BSTAR":"0.00001758300000","EPOCH":"2022-05-29T22:12:55.012608","TLE_LINE2":"2 47586  53.0560 115.6273 0002164  47.0902 313.0268 15.06388727 72550","SEMIMAJOR_AXIS":"6925.383","CENTER_NAME":"EARTH","INCLINATION":"53.0560","APOAPSIS":"548.747","OBJECT_NAME":"STARLINK-1990","MEAN_ANOMALY":"313.0268","RA_OF_ASC_NODE":"115.6273","LAUNCH_DATE":"2021-02-04","PERIAPSIS":"545.749","TIME_SYSTEM":"UTC","OBJECT_ID":"2021-009AQ","RCS_SIZE":"LARGE","ECCENTRICITY":"0.00021640","MEAN_ELEMENT_THEORY":"SGP4","MEAN_MOTION_DOT":"-0.00000020","DECAY_DATE":null,"CLASSIFICATION_TYPE":"U","MEAN_MOTION":"15.06388727","TLE_LINE1":"1 47586U 21009AQ  22149.92563672 -.00000020  00000-0  17583-4 0  9991","REV_AT_EPOCH":"7255","ARG_OF_PERICENTER":"47.0902","EPHEMERIS_TYPE":"0"},{"ELEMENT_SET_NO":"999","NORAD_CAT_ID":"47587","REF_FRAME":"TEME","OBJECT_TYPE":"PAYLOAD","COUNTRY_CODE":"US","PERIOD":"95.592","MEAN_MOTION_DDOT":"0.0000000000000","GP_ID":"204853373","FILE":"3470904","SITE":"AFETR","BSTAR":"-0.00000976210000","EPOCH":"2022-05-29T12:33:02.862720","TLE_LINE2":"2 47587  53.0555  87.4376 0002064  56.0167 304.1018 15.06401986 72914","SEMIMAJOR_AXIS":"6925.342","CENTER_NAME":"EARTH","INCLINATION":"53.0555","APOAPSIS":"548.637","MEAN_ANOMALY":"304.1018","OBJECT_NAME":"STARLINK-1991","RA_OF_ASC_NODE":"87.4376","LAUNCH_DATE":"2021-02-04","PERIAPSIS":"545.778","TIME_SYSTEM":"UTC","OBJECT_ID":"2021-009AR","RCS_SIZE":"LARGE","ECCENTRICITY":"0.00020640","MEAN_ELEMENT_THEORY":"SGP4","MEAN_MOTION_DOT":"-0.00000427","DECAY_DATE":null,"CLASSIFICATION_TYPE":"U","MEAN_MOTION":"15.06401986","TLE_LINE1":"1 47587U 21009AR  22149.52294980 -.00000427  00000-0 -97621-5 0  9995","REV_AT_EPOCH":"7291","ARG_OF_PERICENTER":"56.0167","EPHEMERIS_TYPE":"0"},{"MEAN_ANOMALY":"305.1545","OBJECT_NAME":"STARLINK-1993","APOAPSIS":"548.452","RA_OF_ASC_NODE":"95.9670","SEMIMAJOR_AXIS":"6925.377","CENTER_NAME":"EARTH","INCLINATION":"53.0548","EPOCH":"2022-05-29T20:18:47.954304","BSTAR":"-0.00005250600000","TLE_LINE2":"2 47588  53.0548  95.9670 0001747  54.9608 305.1545 15.06390638 72829","SITE":"AFETR","GP_ID":"204888985","FILE":"3471362","COUNTRY_CODE":"US","MEAN_MOTION_DDOT":"0.0000000000000","OBJECT_TYPE":"PAYLOAD","PERIOD":"95.593","REF_FRAME":"TEME","NORAD_CAT_ID":"47588","ELEMENT_SET_NO":"999","ARG_OF_PERICENTER":"54.9608","EPHEMERIS_TYPE":"0","REV_AT_EPOCH":"7282","TLE_LINE1":"1 47588U 21009AS  22149.84638836 -.00001063  00000-0 -52506-4 0  9992","CLASSIFICATION_TYPE":"U","MEAN_MOTION":"15.06390638","MEAN_MOTION_DOT":"-0.00001063","DECAY_DATE":null,"OBJECT_ID":"2021-009AS","MEAN_ELEMENT_THEORY":"SGP4","RCS_SIZE":"LARGE","ECCENTRICITY":"0.00017470","TIME_SYSTEM":"UTC","PERIAPSIS":"546.032","LAUNCH_DATE":"2021-02-04"},{"OBJECT_ID":"2021-009AT","ECCENTRICITY":"0.00018800","RCS_SIZE":"LARGE","MEAN_ELEMENT_THEORY":"SGP4","MEAN_MOTION_DOT":"0.00004165","DECAY_DATE":null,"LAUNCH_DATE":"2021-02-04","PERIAPSIS":"545.943","TIME_SYSTEM":"UTC","REV_AT_EPOCH":"7273","TLE_LINE1":"1 47589U 21009AT  22149.26768327  .00004165  00000-0  29844-3 0  9990","EPHEMERIS_TYPE":"0","ARG_OF_PERICENTER":"35.9380","CLASSIFICATION_TYPE":"U","MEAN_MOTION":"15.06389903","GP_ID":"204854870","FILE":"3470904","SITE":"AFETR","EPOCH":"2022-05-29T06:25:27.834528","BSTAR":"0.00029844000000","TLE_LINE2":"2 47589  53.0550  98.5822 0001880  35.9380 324.1736 15.06389903 72731","ELEMENT_SET_NO":"999","REF_FRAME":"TEME","NORAD_CAT_ID":"47589","COUNTRY_CODE":"US","PERIOD":"95.593","OBJECT_TYPE":"PAYLOAD","MEAN_MOTION_DDOT":"0.0000000000000","APOAPSIS":"548.546","MEAN_ANOMALY":"324.1736","OBJECT_NAME":"STARLINK-1994","RA_OF_ASC_NODE":"98.5822","CENTER_NAME":"EARTH","SEMIMAJOR_AXIS":"6925.380","INCLINATION":"53.0550"}];
